[{"OBJECT_NAME":"STARLINK-6190","OBJECT_ID":"2023-078H","EPOCH":"2026-03-09T22:48:45.792000","MEAN_MOTION":14.98324844,"ECCENTRICITY":0.0002323,"INCLINATION":70.0012,"RA_OF_ASC_NODE":3.8987,"ARG_OF_PERICENTER":268.2957,"MEAN_ANOMALY":91.7936,"EPHEMERIS_TYPE":0,"CLASSIFICATION_TYPE":"U","NORAD_CAT_ID":56774,"ELEMENT_SET_NO":999,"REV_AT_EPOCH":15222,"BSTAR":-3.4467296e-5,"MEAN_MOTION_DOT":-5.04e-6,"MEAN_MOTION_DDOT":0},{"OBJECT_NAME":"LEMUR-2-LUCILLE-ROSE","OBJECT_ID":"2025-135BV","EPOCH":"2026-03-09T20:33:39.744864","MEAN_MOTION":14.98437227,"ECCENTRICITY":0.00099823,"INCLINATION":97.7607,"RA_OF_ASC_NODE":185.354,"ARG_OF_PERICENTER":240.475,"MEAN_ANOMALY":119.5478,"EPHEMERIS_TYPE":0,"CLASSIFICATION_TYPE":"U","NORAD_CAT_ID":65403,"ELEMENT_SET_NO":999,"REV_AT_EPOCH":3375,"BSTAR":0.0012144011,"MEAN_MOTION_DOT":0.00014478,"MEAN_MOTION_DDOT":0}]
